[Satellite]
VERSION=1.1
NAME=ARTEMIS
NICKNAME=ARTEMIS
TLE1=1 26863U 01029A   17185.92014237 -.00000380  00000-0  00000-0 0  9999
TLE2=2 26863  12.7492  32.8858 0002042  97.2604 247.1542  1.00267623 59615
